{
  "type": "FeatureCollection",
  "features": [
    {
      "type": "Feature",
      "properties": {
        "norad_id": 19071,
        "name": "OSCAR 32",
        "group": "nnss",
        "lat": 48.54582494544744,
        "lon": -163.43522695814895,
        "alt_km": 1087.3040380322218,
        "timestamp": "2025-12-02T06:27:53.282304+00:00",
        "meta_object_name": "OSCAR 32",
        "meta_object_id": "1988-033B",
        "meta_epoch": "2025-12-01T15:55:18.699168",
        "meta_mean_motion": 13.27951626,
        "meta_eccentricity": 0.01874368,
        "meta_inclination": 90.3229,
        "meta_ra_of_asc_node": 16.18,
        "meta_arg_of_pericenter": 197.5975,
        "meta_mean_anomaly": 280.5511,
        "meta_ephemeris_type": 0,
        "meta_classification_type": "U",
        "meta_norad_cat_id": 19071,
        "meta_element_set_no": 999,
        "meta_rev_at_epoch": 82118,
        "meta_bstar": 0.00016826456,
        "meta_mean_motion_dot": 9.2e-07,
        "meta_mean_motion_ddot": 0,
        "tle_line1": "1 19071U 88033B   25335.66341087  .00000092  00000+0  16826-3 0  9999",
        "tle_line2": "2 19071  90.3229  16.1800 0187436 197.5975 280.5511 13.27951626821187"
      },
      "geometry": {
        "type": "Point",
        "coordinates": [
          -163.43522695814895,
          48.54582494544744
        ]
      }
    },
    {
      "type": "Feature",
      "properties": {
        "norad_id": 19223,
        "name": "NOVA 2",
        "group": "nnss",
        "lat": 20.15726060150443,
        "lon": -101.71932897321666,
        "alt_km": 1183.3851691239324,
        "timestamp": "2025-12-02T06:27:53.282315+00:00",
        "meta_object_name": "NOVA 2",
        "meta_object_id": "1988-052A",
        "meta_epoch": "2025-12-01T19:22:23.856384",
        "meta_mean_motion": 13.2293377,
        "meta_eccentricity": 0.0031453,
        "meta_inclination": 89.9873,
        "meta_ra_of_asc_node": 78.2859,
        "meta_arg_of_pericenter": 46.3277,
        "meta_mean_anomaly": 73.3591,
        "meta_ephemeris_type": 0,
        "meta_classification_type": "U",
        "meta_norad_cat_id": 19223,
        "meta_element_set_no": 999,
        "meta_rev_at_epoch": 80803,
        "meta_bstar": 0.00011217,
        "meta_mean_motion_dot": 5.6e-07,
        "meta_mean_motion_ddot": 0,
        "tle_line1": "1 19223U 88052A   25335.80722056  .00000056  00000+0  11217-3 0  9993",
        "tle_line2": "2 19223  89.9873  78.2859 0031453  46.3277  73.3591 13.22933770808031"
      },
      "geometry": {
        "type": "Point",
        "coordinates": [
          -101.71932897321666,
          20.15726060150443
        ]
      }
    },
    {
      "type": "Feature",
      "properties": {
        "norad_id": 19419,
        "name": "OSCAR 25",
        "group": "nnss",
        "lat": -33.70432492409194,
        "lon": -159.81459487252198,
        "alt_km": 1072.8861276449588,
        "timestamp": "2025-12-02T06:27:53.282325+00:00",
        "meta_object_name": "OSCAR 25",
        "meta_object_id": "1988-074A",
        "meta_epoch": "2025-12-01T15:39:19.958976",
        "meta_mean_motion": 13.42619963,
        "meta_eccentricity": 0.00941983,
        "meta_inclination": 90.0358,
        "meta_ra_of_asc_node": 20.2071,
        "meta_arg_of_pericenter": 278.0594,
        "meta_mean_anomaly": 195.7807,
        "meta_ephemeris_type": 0,
        "meta_classification_type": "U",
        "meta_norad_cat_id": 19419,
        "meta_element_set_no": 999,
        "meta_rev_at_epoch": 82491,
        "meta_bstar": 0.00019519513,
        "meta_mean_motion_dot": 1.22e-06,
        "meta_mean_motion_ddot": 0,
        "tle_line1": "1 19419U 88074A   25335.65231434  .00000122  00000+0  19520-3 0  9991",
        "tle_line2": "2 19419  90.0358  20.2071 0094198 278.0594 195.7807 13.42619963824914"
      },
      "geometry": {
        "type": "Point",
        "coordinates": [
          -159.81459487252198,
          -33.70432492409194
        ]
      }
    },
    {
      "type": "Feature",
      "properties": {
        "norad_id": 19420,
        "name": "OSCAR 31",
        "group": "nnss",
        "lat": 80.37364678654015,
        "lon": -159.2210677358085,
        "alt_km": 1160.604887299849,
        "timestamp": "2025-12-02T06:27:53.282335+00:00",
        "meta_object_name": "OSCAR 31",
        "meta_object_id": "1988-074B",
        "meta_epoch": "2025-12-01T16:16:42.845088",
        "meta_mean_motion": 13.42581782,
        "meta_eccentricity": 0.0092422,
        "meta_inclination": 90.0375,
        "meta_ra_of_asc_node": 20.5555,
        "meta_arg_of_pericenter": 272.0976,
        "meta_mean_anomaly": 212.4422,
        "meta_ephemeris_type": 0,
        "meta_classification_type": "U",
        "meta_norad_cat_id": 19420,
        "meta_element_set_no": 999,
        "meta_rev_at_epoch": 82502,
        "meta_bstar": 0.00017408,
        "meta_mean_motion_dot": 1.09e-06,
        "meta_mean_motion_ddot": 0,
        "tle_line1": "1 19420U 88074B   25335.67827367  .00000109  00000+0  17408-3 0  9999",
        "tle_line2": "2 19420  90.0375  20.5555 0092422 272.0976 212.4422 13.42581782825021"
      },
      "geometry": {
        "type": "Point",
        "coordinates": [
          -159.2210677358085,
          80.37364678654015
        ]
      }
    }
  ]
}